NORAD_CAT_ID,OBJECT_NAME,OBJECT_TYPE,EPOCH,MEAN_MOTION,ECCENTRICITY,INCLINATION,RA_OF_ASC_NODE,ARG_OF_PERICENTER,MEAN_ANOMALY,BSTAR,MEAN_MOTION_DOT,MEAN_MOTION_DDOT,TLE_LINE0,TLE_LINE1,TLE_LINE2,SEMIMAJOR_AXIS,PERIOD,APOGEE,PERIGEE,DECAYED
55316.0,STARLINK-5257,PAYLOAD,2024-03-10 07:50:19,14.98334684,0.0002894,70.0008,43.3394,268.6155,91.4672,7.3074e-05,7.79e-06,0.0,0 STARLINK-5257,1 55316U 23010AZ  24070.32662018  .00000779  00000-0  73074-4 0  9995,2 55316  70.0008  43.3394 0002894 268.6155  91.4672 14.98334684 65391,6950.178,96.107,574.055,570.032,0.0
55316.0,STARLINK-5257,PAYLOAD,2024-03-10 22:15:33,14.98323946,0.0003203,70.0009,41.8236,268.3464,91.7328,6.1128e-05,6.36e-06,0.0,0 STARLINK-5257,1 55316U 23010AZ  24070.92746545  .00000636  00000-0  61128-4 0  9998,2 55316  70.0009  41.8236 0003203 268.3464  91.7328 14.98323946 65485,6950.212,96.107,574.303,569.85,0.0
55316.0,STARLINK-5257,PAYLOAD,2024-03-11 04:40:05,14.98327631,0.0002782,70.0012,41.151,270.2796,89.8044,1.8558e-05,1.28e-06,0.0,0 STARLINK-5257,1 55316U 23010AZ  24071.19450628  .00000128  00000-0  18558-4 0  9997,2 55316  70.0012  41.1510 0002782 270.2796  89.8044 14.98327631 64340,6950.2,96.107,573.999,570.132,0.0
55316.0,STARLINK-5257,PAYLOAD,2024-03-11 07:52:21,14.98328785,0.0002813,70.0012,40.8143,270.8055,89.2782,1.8281e-05,1.25e-06,0.0,0 STARLINK-5257,1 55316U 23010AZ  24071.32802471  .00000125  00000-0  18281-4 0  9999,2 55316  70.0012  40.8143 0002813 270.8055  89.2782 14.98328785 65544,6950.197,96.107,574.017,570.107,0.0
55316.0,STARLINK-5257,PAYLOAD,2024-03-12 04:42:06,14.98329139,0.0002717,70.0017,38.6262,272.5863,87.4985,2.5661e-05,2.13e-06,0.0,0 STARLINK-5257,1 55316U 23010AZ  24072.19590434  .00000213  00000-0  25661-4 0  9996,2 55316  70.0017  38.6262 0002717 272.5863  87.4985 14.98329139 64497,6950.196,96.107,573.949,570.172,0.0
55316.0,STARLINK-5257,PAYLOAD,2024-03-12 14:18:54,14.98322328,0.0002733,70.0018,37.6163,272.9957,87.0889,0.00015264,1.728e-05,0.0,0 STARLINK-5257,1 55316U 23010AZ  24072.59646535  .00001728  00000-0  15264-3 0  9993,2 55316  70.0018  37.6163 0002733 272.9957  87.0889 14.98322328 65733,6950.217,96.107,573.981,570.182,0.0
55316.0,STARLINK-5257,PAYLOAD,2024-03-13 04:44:06,14.98332328,0.0002802,70.0016,36.1015,273.3302,86.7536,4.9482e-05,4.98e-06,0.0,0 STARLINK-5257,1 55316U 23010AZ  24073.19730019  .00000498  00000-0  49482-4 0  9994,2 55316  70.0016  36.1015 0002802 273.3302  86.7536 14.98332328 64642,6950.186,96.107,573.998,570.103,0.0
55316.0,STARLINK-5257,PAYLOAD,2024-03-13 14:20:54,14.98367296,0.0002782,70.002,35.0913,278.3767,81.7077,-0.00059662,-7.211e-05,0.0,0 STARLINK-5257,1 55316U 23010AZ  24073.59785107 -.00007211  00000-0 -59662-3 0  9998,2 55316  70.0020  35.0913 0002782 278.3767  81.7077 14.98367296 65883,6950.078,96.105,573.876,570.009,0.0
55316.0,STARLINK-5257,PAYLOAD,2024-03-13 22:21:35,14.98331171,0.0002672,70.0019,34.2502,268.4692,91.6161,4.1224e-06,-4.4e-07,0.0,0 STARLINK-5257,1 55316U 23010AZ  24073.93166085 -.00000044  00000-0  41224-5 0  9997,2 55316  70.0019  34.2502 0002672 268.4692  91.6161 14.98331171 65934,6950.189,96.107,573.911,570.197,0.0
55316.0,STARLINK-5257,PAYLOAD,2024-03-14 04:46:07,14.98331527,0.0002781,70.0015,33.5769,269.389,90.695,-4.2416e-06,-1.44e-06,0.0,0 STARLINK-5257,1 55316U 23010AZ  24074.19870052 -.00000144  00000-0 -42416-5 0  9998,2 55316  70.0015  33.5769 0002781 269.3890  90.6950 14.98331527 64791,6950.188,96.107,573.986,570.12,0.0
55316.0,STARLINK-5257,PAYLOAD,2024-03-14 06:22:15,14.98332433,0.0002671,70.0017,33.4085,268.3587,91.7266,-1.7097e-06,-1.13e-06,0.0,0 STARLINK-5257,1 55316U 23010AZ  24074.26545982 -.00000113  00000-0 -17097-5 0  9990,2 55316  70.0017  33.4085 0002671 268.3587  91.7266 14.98332433 65984,6950.185,96.107,573.907,570.194,0.0
55316.0,STARLINK-5257,PAYLOAD,2024-03-14 22:23:36,14.98328026,0.0002534,70.002,31.7263,255.4587,104.6291,-7.5081e-05,-9.89e-06,0.0,0 STARLINK-5257,1 55316U 23010AZ  24074.93306436 -.00000989  00000-0 -75081-4 0  9990,2 55316  70.0020  31.7263 0002534 255.4587 104.6291 14.98328026 66089,6950.199,96.107,573.825,570.303,0.0
55316.0,STARLINK-5257,PAYLOAD,2024-03-15 04:48:09,14.98323243,0.0002507,70.0022,31.0538,251.1738,108.9149,-8.479e-05,-1.104e-05,0.0,0 STARLINK-5257,1 55316U 23010AZ  24075.20010810 -.00001104  00000-0 -84790-4 0  9996,2 55316  70.0022  31.0538 0002507 251.1738 108.9149 14.98323243 64948,6950.214,96.107,573.821,570.336,0.0
55316.0,STARLINK-5257,PAYLOAD,2024-03-15 22:25:37,14.98329681,0.0002959,70.0009,29.2011,267.6445,92.4376,3.4926e-05,3.24e-06,0.0,0 STARLINK-5257,1 55316U 23010AZ  24075.93446149  .00000324  00000-0  34926-4 0  9991,2 55316  70.0009  29.2011 0002959 267.6445  92.4376 14.98329681 66231,6950.194,96.107,574.115,570.002,0.0
55316.0,STARLINK-5257,PAYLOAD,2024-03-16 04:50:09,14.98334594,0.0003059,70.0004,28.5264,267.3304,92.7505,3.9054e-05,3.73e-06,0.0,0 STARLINK-5257,1 55316U 23010AZ  24076.20149791  .00000373  00000-0  39054-4 0  9996,2 55316  70.0004  28.5264 0003059 267.3304  92.7505 14.98334594 65090,6950.179,96.107,574.17,569.918,0.0
55316.0,STARLINK-5257,PAYLOAD,2024-03-16 06:26:17,14.98336019,0.0003104,70.0004,28.3587,268.1443,91.936,6.0731e-05,6.32e-06,0.0,0 STARLINK-5257,1 55316U 23010AZ  24076.26825625  .00000632  00000-0  60731-4 0  9993,2 55316  70.0004  28.3587 0003104 268.1443  91.9360 14.98336019 66286,6950.174,96.107,574.197,569.882,0.0
55316.0,STARLINK-5257,PAYLOAD,2024-03-16 22:27:38,14.98300034,0.000268,70.0012,26.6745,275.7555,84.3298,0.00052745,6.201e-05,0.0,0 STARLINK-5257,1 55316U 23010AZ  24076.93586375  .00006201  00000-0  52745-3 0  9996,2 55316  70.0012  26.6745 0002680 275.7555  84.3298 14.98300034 66383,6950.286,96.109,574.013,570.288,0.0
55316.0,STARLINK-5257,PAYLOAD,2024-03-17 04:52:10,14.9832544,0.0002575,70.0012,26.0014,266.8068,93.2796,7.6271e-05,8.17e-06,0.0,0 STARLINK-5257,1 55316U 23010AZ  24077.20290347  .00000817  00000-0  76271-4 0  9996,2 55316  70.0012  26.0014 0002575 266.8068  93.2796 14.98325440 65243,6950.207,96.107,573.862,570.282,0.0
55316.0,STARLINK-5257,PAYLOAD,2024-03-17 06:28:18,14.98326485,0.0002608,70.0013,25.8334,267.4278,92.6583,9.0861e-05,9.91e-06,0.0,0 STARLINK-5257,1 55316U 23010AZ  24077.26966251  .00000991  00000-0  90861-4 0  9990,2 55316  70.0013  25.8334 0002608 267.4278  92.6583 14.98326485 66432,6950.204,96.107,573.881,570.256,0.0
55316.0,STARLINK-5257,PAYLOAD,2024-03-17 22:29:39,14.98331107,0.0002688,70.0016,24.1503,274.2324,85.8527,-2.0133e-05,-3.33e-06,0.0,0 STARLINK-5257,1 55316U 23010AZ  24077.93726235 -.00000333  00000-0 -20133-4 0  9997,2 55316  70.0016  24.1503 0002688 274.2324  85.8527 14.98331107 66531,6950.189,96.107,573.923,570.186,0.0
55316.0,STARLINK-5257,PAYLOAD,2024-03-18 04:54:11,14.98333306,0.0002733,70.0014,23.4776,269.4045,90.6801,-1.1141e-05,-2.26e-06,0.0,0 STARLINK-5257,1 55316U 23010AZ  24078.20429981 -.00000226  00000-0 -11141-4 0  9996,2 55316  70.0014  23.4776 0002733 269.4045  90.6801 14.98333306 65395,6950.183,96.107,573.947,570.148,0.0
55316.0,STARLINK-5257,PAYLOAD,2024-03-18 06:30:19,14.98334275,0.0002706,70.0015,23.3096,268.6775,91.4074,2.9703e-06,-5.7e-07,0.0,0 STARLINK-5257,1 55316U 23010AZ  24078.27105867 -.00000057  00000-0  29703-5 0  9992,2 55316  70.0015  23.3096 0002706 268.6775  91.4074 14.98334275 66580,6950.18,96.107,573.925,570.164,0.0
55316.0,STARLINK-5257,PAYLOAD,2024-03-18 20:55:32,14.98257698,0.0001941,70.0018,21.7964,275.275,84.8188,0.0012021,0.00014252,0.0,0 STARLINK-5257,1 55316U 23010AZ  24078.87190535  .00014252  00000-0  12021-2 0  9997,2 55316  70.0018  21.7964 0001941 275.2750  84.8188 14.98257698 65490,6950.416,96.112,573.631,570.932,0.0
55316.0,STARLINK-5257,PAYLOAD,2024-03-18 22:31:40,14.98256097,0.0001981,70.0019,21.6278,275.4241,84.6692,0.0012635,0.00014986,0.0,0 STARLINK-5257,1 55316U 23010AZ  24078.93866690  .00014986  00000-0  12635-2 0  9991,2 55316  70.0019  21.6278 0001981 275.4241  84.6692 14.98256097 66681,6950.421,96.112,573.663,570.91,0.0
55316.0,STARLINK-5257,PAYLOAD,2024-03-19 01:43:56,14.98339275,0.0002091,70.0019,21.292,253.7687,106.3242,-0.00010716,-1.371e-05,0.0,0 STARLINK-5257,1 55316U 23010AZ  24079.07217742 -.00001371  00000-0 -10716-3 0  9990,2 55316  70.0019  21.2920 0002091 253.7687 106.3242 14.98339275 65522,6950.164,96.106,573.482,570.576,0.0
55316.0,STARLINK-5257,PAYLOAD,2024-03-19 06:32:21,14.98266184,0.0001874,70.0021,20.7869,258.182,101.9129,0.0012264,0.00014546,0.0,0 STARLINK-5257,1 55316U 23010AZ  24079.27247270  .00014546  00000-0  12264-2 0  9996,2 55316  70.0021  20.7869 0001874 258.1820 101.9129 14.98266184 66734,6950.39,96.111,573.558,570.953,0.0
55316.0,STARLINK-5257,PAYLOAD,2024-03-20 01:45:56,14.98338808,0.0002484,70.0021,18.7672,251.1962,108.8927,7.6882e-05,8.25e-06,0.0,0 STARLINK-5257,1 55316U 23010AZ  24080.07356776  .00000825  00000-0  76882-4 0  9991,2 55316  70.0021  18.7672 0002484 251.1962 108.8927 14.98338808 65678,6950.166,96.106,573.757,570.304,0.0
55316.0,STARLINK-5257,PAYLOAD,2024-03-20 06:34:19,14.98337597,0.0002688,70.001,18.259,246.3214,113.7663,0.0002525,2.922e-05,0.0,0 STARLINK-5257,1 55316U 23010AZ  24080.27384180  .00002922  00000-0  25250-3 0  9995,2 55316  70.0010  18.2590 0002688 246.3214 113.7663 14.98337597 66882,6950.169,96.107,573.903,570.166,0.0
55316.0,STARLINK-5257,PAYLOAD,2024-03-20 20:59:33,14.98329915,0.0002986,70.002,16.7462,211.6023,148.4957,-7.869e-05,-1.032e-05,0.0,0 STARLINK-5257,1 55316U 23010AZ  24080.87469390 -.00001032  00000-0 -78690-4 0  9998,2 55316  70.0020  16.7462 0002986 211.6023 148.4957 14.98329915 65793,6950.193,96.107,574.133,569.983,0.0
55316.0,STARLINK-5257,PAYLOAD,2024-03-20 22:35:41,14.98334923,0.0002967,70.0021,16.576,225.6527,134.4389,-0.00020769,-2.57e-05,0.0,0 STARLINK-5257,1 55316U 23010AZ  24080.94145471 -.00002570  00000-0 -20769-3 0  9998,2 55316  70.0021  16.5760 0002967 225.6527 134.4389 14.98334923 66987,6950.178,96.107,574.105,569.981,0.0
